[
    {
        "Altitude(m)": 717861.792825689,
        "Argument of Periapsis(deg)": 0.005695060593313534,
        "Eccentricity": 0.0,
        "Inclination(deg)": 45.0,
        "Latitude(deg)": -45.1035301565087,
        "Longitude(deg)": 126.22924065360301,
        "Mean Anomaly(deg)": -92.41519167625964,
        "RAAN(deg)": 319.9946240292709,
        "Satellite Name": "Constellation 1 1424",
        "Satellite Number": 1424,
        "Semi-Major Axis(m)": 7083131.272910544,
        "Time(s)": 95
    },
    {
        "Altitude(m)": 717862.8184019513,
        "Argument of Periapsis(deg)": 0.00575500859955894,
        "Eccentricity": 0.0,
        "Inclination(deg)": 45.0,
        "Latitude(deg)": -45.10604072894983,
        "Longitude(deg)": 126.31062226083766,
        "Mean Anomaly(deg)": -92.35449053600969,
        "RAAN(deg)": 319.9945674401053,
        "Satellite Name": "Constellation 1 1424",
        "Satellite Number": 1424,
        "Semi-Major Axis(m)": 7083131.272910544,
        "Time(s)": 96
    },
    {
        "Altitude(m)": 717863.8176438982,
        "Argument of Periapsis(deg)": 0.005814956605804345,
        "Eccentricity": 0.0,
        "Inclination(deg)": 45.0,
        "Latitude(deg)": -45.108487327560745,
        "Longitude(deg)": 126.39201141975211,
        "Mean Anomaly(deg)": -92.29378939575973,
        "RAAN(deg)": 319.9945108509398,
        "Satellite Name": "Constellation 1 1424",
        "Satellite Number": 1424,
        "Semi-Major Axis(m)": 7083131.272910544,
        "Time(s)": 97
    },
    {
        "Altitude(m)": 717864.7905478233,
        "Argument of Periapsis(deg)": 0.00587490461204975,
        "Eccentricity": 0.0,
        "Inclination(deg)": 45.0,
        "Latitude(deg)": -45.11086994154571,
        "Longitude(deg)": 126.47340777289435,
        "Mean Anomaly(deg)": -92.2330882555099,
        "RAAN(deg)": 319.9944542617742,
        "Satellite Name": "Constellation 1 1424",
        "Satellite Number": 1424,
        "Semi-Major Axis(m)": 7083131.272910544,
        "Time(s)": 98
    },
    {
        "Altitude(m)": 717865.7371101085,
        "Argument of Periapsis(deg)": 0.005934852618295156,
        "Eccentricity": 0.0,
        "Inclination(deg)": 45.0,
        "Latitude(deg)": -45.11318856038914,
        "Longitude(deg)": 126.55481113078136,
        "Mean Anomaly(deg)": -92.17238711526,
        "RAAN(deg)": 319.9943976726086,
        "Satellite Name": "Constellation 1 1424",
        "Satellite Number": 1424,
        "Semi-Major Axis(m)": 7083131.272910544,
        "Time(s)": 99
    },
    {
        "Altitude(m)": 717866.6573272417,
        "Argument of Periapsis(deg)": 0.005994800624540561,
        "Eccentricity": 0.0,
        "Inclination(deg)": 45.0,
        "Latitude(deg)": -45.115443173855965,
        "Longitude(deg)": 126.63622130380541,
        "Mean Anomaly(deg)": -92.11168597501002,
        "RAAN(deg)": 319.99434108344303,
        "Satellite Name": "Constellation 1 1424",
        "Satellite Number": 1424,
        "Semi-Major Axis(m)": 7083131.272910544,
        "Time(s)": 100
    },
    {
        "Altitude(m)": 717867.5511958032,
        "Argument of Periapsis(deg)": 0.006054748630785968,
        "Eccentricity": 0.0,
        "Inclination(deg)": 45.0,
        "Latitude(deg)": -45.11763377199148,
        "Longitude(deg)": 126.71763810223705,
        "Mean Anomaly(deg)": -92.05098483476019,
        "RAAN(deg)": 319.99428449427745,
        "Satellite Name": "Constellation 1 1424",
        "Satellite Number": 1424,
        "Semi-Major Axis(m)": 7083131.272910544,
        "Time(s)": 101
    },
    {
        "Altitude(m)": 717868.4187124716,
        "Argument of Periapsis(deg)": 0.006114696637031373,
        "Eccentricity": 0.0,
        "Inclination(deg)": 45.0,
        "Latitude(deg)": -45.1197603451218,
        "Longitude(deg)": 126.79906133622887,
        "Mean Anomaly(deg)": -91.99028369451032,
        "RAAN(deg)": 319.9942279051119,
        "Satellite Name": "Constellation 1 1424",
        "Satellite Number": 1424,
        "Semi-Major Axis(m)": 7083131.272910544,
        "Time(s)": 102
    },
    {
        "Altitude(m)": 717869.2598740227,
        "Argument of Periapsis(deg)": 0.006174644643276778,
        "Eccentricity": 0.0,
        "Inclination(deg)": 45.0,
        "Latitude(deg)": -45.121822883854065,
        "Longitude(deg)": 126.88049081581907,
        "Mean Anomaly(deg)": -91.92958255426038,
        "RAAN(deg)": 319.99417131594635,
        "Satellite Name": "Constellation 1 1424",
        "Satellite Number": 1424,
        "Semi-Major Axis(m)": 7083131.272910544,
        "Time(s)": 103
    },
    {
        "Altitude(m)": 717870.0746773313,
        "Argument of Periapsis(deg)": 0.006234592649522184,
        "Eccentricity": 0.0,
        "Inclination(deg)": 45.0,
        "Latitude(deg)": -45.12382137907627,
        "Longitude(deg)": 126.961926182837,
        "Mean Anomaly(deg)": -91.86888141401046,
        "RAAN(deg)": 319.99411472678077,
        "Satellite Name": "Constellation 1 1424",
        "Satellite Number": 1424,
        "Semi-Major Axis(m)": 7083131.272910544,
        "Time(s)": 104
    },
    {
        "Altitude(m)": 717870.8631193632,
        "Argument of Periapsis(deg)": 0.00629454065576759,
        "Eccentricity": 0.0,
        "Inclination(deg)": 45.0,
        "Latitude(deg)": -45.12575582195837,
        "Longitude(deg)": 127.04336758329487,
        "Mean Anomaly(deg)": -91.80818027376063,
        "RAAN(deg)": 319.9940581376152,
        "Satellite Name": "Constellation 1 1424",
        "Satellite Number": 1424,
        "Semi-Major Axis(m)": 7083131.272910544,
        "Time(s)": 105
    },
    {
        "Altitude(m)": 717871.6251971942,
        "Argument of Periapsis(deg)": 0.006354488662012995,
        "Eccentricity": 0.0,
        "Inclination(deg)": 45.0,
        "Latitude(deg)": -45.127626203951316,
        "Longitude(deg)": 127.12481465880994,
        "Mean Anomaly(deg)": -91.74747913351068,
        "RAAN(deg)": 319.99400154844966,
        "Satellite Name": "Constellation 1 1424",
        "Satellite Number": 1424,
        "Semi-Major Axis(m)": 7083131.272910544,
        "Time(s)": 106
    },
    {
        "Altitude(m)": 717872.3609079883,
        "Argument of Periapsis(deg)": 0.006414436668258401,
        "Eccentricity": 0.0,
        "Inclination(deg)": 45.0,
        "Latitude(deg)": -45.129432516787936,
        "Longitude(deg)": 127.2062672189945,
        "Mean Anomaly(deg)": -91.68677799326085,
        "RAAN(deg)": 319.9939449592841,
        "Satellite Name": "Constellation 1 1424",
        "Satellite Number": 1424,
        "Semi-Major Axis(m)": 7083131.272910544,
        "Time(s)": 107
    },
    {
        "Altitude(m)": 717873.0702490027,
        "Argument of Periapsis(deg)": 0.0064743846745038075,
        "Eccentricity": 0.0,
        "Inclination(deg)": 45.0,
        "Latitude(deg)": -45.13117475248298,
        "Longitude(deg)": 127.28772507336356,
        "Mean Anomaly(deg)": -91.62607685301087,
        "RAAN(deg)": 319.9938883701185,
        "Satellite Name": "Constellation 1 1424",
        "Satellite Number": 1424,
        "Semi-Major Axis(m)": 7083131.272910544,
        "Time(s)": 108
    },
    {
        "Altitude(m)": 717873.7532176031,
        "Argument of Periapsis(deg)": 0.0065343326807492125,
        "Eccentricity": 0.0,
        "Inclination(deg)": 45.0,
        "Latitude(deg)": -45.13285290333323,
        "Longitude(deg)": 127.36918803133692,
        "Mean Anomaly(deg)": -91.56537571276102,
        "RAAN(deg)": 319.9938317809529,
        "Satellite Name": "Constellation 1 1424",
        "Satellite Number": 1424,
        "Semi-Major Axis(m)": 7083131.272910544,
        "Time(s)": 109
    },
    {
        "Altitude(m)": 717874.409811246,
        "Argument of Periapsis(deg)": 0.0065942806869946176,
        "Eccentricity": 0.0,
        "Inclination(deg)": 45.0,
        "Latitude(deg)": -45.13446696191767,
        "Longitude(deg)": 127.45065590224372,
        "Mean Anomaly(deg)": -91.50467457251114,
        "RAAN(deg)": 319.99377519178734,
        "Satellite Name": "Constellation 1 1424",
        "Satellite Number": 1424,
        "Semi-Major Axis(m)": 7083131.272910544,
        "Time(s)": 110
    },
    {
        "Altitude(m)": 717875.0400274835,
        "Argument of Periapsis(deg)": 0.006654228693240024,
        "Eccentricity": 0.0,
        "Inclination(deg)": 45.0,
        "Latitude(deg)": -45.13601692109761,
        "Longitude(deg)": 127.5321283272285,
        "Mean Anomaly(deg)": -91.44397343226127,
        "RAAN(deg)": 319.9937186026218,
        "Satellite Name": "Constellation 1 1424",
        "Satellite Number": 1424,
        "Semi-Major Axis(m)": 7083131.272910544,
        "Time(s)": 111
    },
    {
        "Altitude(m)": 717875.643863975,
        "Argument of Periapsis(deg)": 0.006714176699485429,
        "Eccentricity": 0.0,
        "Inclination(deg)": 45.0,
        "Latitude(deg)": -45.13750277401721,
        "Longitude(deg)": 127.6136054516418,
        "Mean Anomaly(deg)": -91.38327229201133,
        "RAAN(deg)": 319.99366201345623,
        "Satellite Name": "Constellation 1 1424",
        "Satellite Number": 1424,
        "Semi-Major Axis(m)": 7083131.272910544,
        "Time(s)": 112
    },
    {
        "Altitude(m)": 717876.2213184629,
        "Argument of Periapsis(deg)": 0.006774124705730835,
        "Eccentricity": 0.0,
        "Inclination(deg)": 45.0,
        "Latitude(deg)": -45.138924514102996,
        "Longitude(deg)": 127.69508691646264,
        "Mean Anomaly(deg)": -91.32257115176138,
        "RAAN(deg)": 319.99360542429065,
        "Satellite Name": "Constellation 1 1424",
        "Satellite Number": 1424,
        "Semi-Major Axis(m)": 7083131.272910544,
        "Time(s)": 113
    }
]